{"type": "FeatureCollection", "features": [{"type": "Feature", "properties": {"PARK_NAME": "Hwange National Park", "NAME": "Hwange National Park", "CATEGORY": "ZimParks IUCN Cat II National Park", "AREA_SQ_KM": 14651, "LEGAL_STATUS": "RESTRICTED WILDLIFE SANCTUARY", "ENVIRONMENTAL_RESTRICTION": "Zero commercial mining permissible (ZimParks Act & EMA Sec 97)", "COMPLIANCE_CODE": "EMA-ZIMPARKS-PROHIBITED"}, "geometry": {"type": "Polygon", "coordinates": [[[25.65, -19.65], [27.35, -19.65], [27.35, -18.35], [25.65, -18.35], [25.65, -19.65]]]}}, {"type": "Feature", "properties": {"PARK_NAME": "Mana Pools National Park & UNESCO World Heritage", "NAME": "Mana Pools National Park & UNESCO World Heritage", "CATEGORY": "UNESCO World Heritage Site & Ramsar Wetland", "AREA_SQ_KM": 2196, "LEGAL_STATUS": "RAMSAR WETLAND BIOSPHERE", "ENVIRONMENTAL_RESTRICTION": "Zambezi River floodplain \u2014 Mining completely prohibited", "COMPLIANCE_CODE": "EMA-ZIMPARKS-PROHIBITED"}, "geometry": {"type": "Polygon", "coordinates": [[[28.849999999999998, -16.150000000000002], [29.95, -16.150000000000002], [29.95, -15.450000000000001], [28.849999999999998, -15.450000000000001], [28.849999999999998, -16.150000000000002]]]}}, {"type": "Feature", "properties": {"PARK_NAME": "Matobo Hills National Park & World Heritage", "NAME": "Matobo Hills National Park & World Heritage", "CATEGORY": "UNESCO World Heritage & Cultural Landscape", "AREA_SQ_KM": 424, "LEGAL_STATUS": "SACRED CULTURAL & ECOLOGICAL RESERVE", "ENVIRONMENTAL_RESTRICTION": "Granite quarrying & prospecting strictly banned within 15km buffer", "COMPLIANCE_CODE": "EMA-ZIMPARKS-PROHIBITED"}, "geometry": {"type": "Polygon", "coordinates": [[[28.22, -20.77], [28.78, -20.77], [28.78, -20.330000000000002], [28.22, -20.330000000000002], [28.22, -20.77]]]}}, {"type": "Feature", "properties": {"PARK_NAME": "Gonarezhou National Park", "NAME": "Gonarezhou National Park", "CATEGORY": "Great Limpopo Transfrontier Conservation Area", "AREA_SQ_KM": 5053, "LEGAL_STATUS": "TRANSFRONTIER CONSERVATION AREA", "ENVIRONMENTAL_RESTRICTION": "Strict biodiversity corridor \u2014 All exploration banned", "COMPLIANCE_CODE": "EMA-ZIMPARKS-PROHIBITED"}, "geometry": {"type": "Polygon", "coordinates": [[[31.1, -22.25], [32.5, -22.25], [32.5, -21.15], [31.1, -21.15], [31.1, -22.25]]]}}, {"type": "Feature", "properties": {"PARK_NAME": "Matusadona National Park", "NAME": "Matusadona National Park", "CATEGORY": "National Park (Lake Kariba Shoreline)", "AREA_SQ_KM": 1407, "LEGAL_STATUS": "NATIONAL PARK & WATER BASIN SANCTUARY", "ENVIRONMENTAL_RESTRICTION": "Lake Kariba aquatic and shoreline preservation zone", "COMPLIANCE_CODE": "EMA-ZIMPARKS-PROHIBITED"}, "geometry": {"type": "Polygon", "coordinates": [[[28.1, -17.22], [28.9, -17.22], [28.9, -16.58], [28.1, -16.58], [28.1, -17.22]]]}}, {"type": "Feature", "properties": {"PARK_NAME": "Chizarira National Park", "NAME": "Chizarira National Park", "CATEGORY": "National Park & Escarpment Wilderness", "AREA_SQ_KM": 2000, "LEGAL_STATUS": "ESCARPMENT WILDERNESS RESERVE", "ENVIRONMENTAL_RESTRICTION": "Zambezi escarpment protected wildlife habitat", "COMPLIANCE_CODE": "EMA-ZIMPARKS-PROHIBITED"}, "geometry": {"type": "Polygon", "coordinates": [[[27.45, -17.950000000000003], [28.349999999999998, -17.950000000000003], [28.349999999999998, -17.25], [27.45, -17.25], [27.45, -17.950000000000003]]]}}, {"type": "Feature", "properties": {"PARK_NAME": "Sebakwe Recreational Park & Catchment", "NAME": "Sebakwe Recreational Park & Catchment", "CATEGORY": "Recreational Park & Dam Catchment", "AREA_SQ_KM": 260, "LEGAL_STATUS": "WATER RESOURCE & LEISURE SANCTUARY", "ENVIRONMENTAL_RESTRICTION": "Kwekwe / Midlands gold tailings discharge prohibited", "COMPLIANCE_CODE": "EMA-ZIMPARKS-PROHIBITED"}, "geometry": {"type": "Polygon", "coordinates": [[[29.92, -19.15], [30.28, -19.15], [30.28, -18.85], [29.92, -18.85], [29.92, -19.15]]]}}, {"type": "Feature", "properties": {"PARK_NAME": "Mafungabusi Forest Reserve", "NAME": "Mafungabusi Forest Reserve", "CATEGORY": "State Forest Reserve (Forestry Commission)", "AREA_SQ_KM": 820, "LEGAL_STATUS": "GAZETTED INDIGENOUS HARDWOOD FOREST", "ENVIRONMENTAL_RESTRICTION": "Gokwe timber & water catchment \u2014 Illegal gold panning strictly monitored", "COMPLIANCE_CODE": "EMA-ZIMPARKS-PROHIBITED"}, "geometry": {"type": "Polygon", "coordinates": [[[28.5, -18.45], [29.1, -18.45], [29.1, -17.95], [28.5, -17.95], [28.5, -18.45]]]}}, {"type": "Feature", "properties": {"PARK_NAME": "Chimanimani National Park", "NAME": "Chimanimani National Park", "CATEGORY": "National Park & Mountain Biosphere", "AREA_SQ_KM": 171, "LEGAL_STATUS": "MOUNTAIN WATER TOWER BIOSPHERE", "ENVIRONMENTAL_RESTRICTION": "Eastern Highlands water catchment \u2014 All alluvial mining prohibited", "COMPLIANCE_CODE": "EMA-ZIMPARKS-PROHIBITED"}, "geometry": {"type": "Polygon", "coordinates": [[[32.8, -20.0], [33.2, -20.0], [33.2, -19.6], [32.8, -19.6], [32.8, -20.0]]]}}, {"type": "Feature", "properties": {"PARK_NAME": "Victoria Falls National Park & World Heritage", "NAME": "Victoria Falls National Park & World Heritage", "CATEGORY": "UNESCO World Heritage & Special Ecological Zone", "AREA_SQ_KM": 23, "LEGAL_STATUS": "GLOBAL NATURAL WONDER", "ENVIRONMENTAL_RESTRICTION": "Tourism & Zambezi River gorge preservation \u2014 Mining prohibited", "COMPLIANCE_CODE": "EMA-ZIMPARKS-PROHIBITED"}, "geometry": {"type": "Polygon", "coordinates": [[[25.75, -18.0], [25.93, -18.0], [25.93, -17.840000000000003], [25.75, -17.840000000000003], [25.75, -18.0]]]}}, {"type": "Feature", "properties": {"PARK_NAME": "Chete Safari Area & Kariba Basin", "NAME": "Chete Safari Area & Kariba Basin", "CATEGORY": "ZimParks Safari Area & Wildlife Corridor", "AREA_SQ_KM": 1081, "LEGAL_STATUS": "WILDLIFE SAFARI RESERVE", "ENVIRONMENTAL_RESTRICTION": "Binga / Kariba shoreline wildlife sanctuary", "COMPLIANCE_CODE": "EMA-ZIMPARKS-PROHIBITED"}, "geometry": {"type": "Polygon", "coordinates": [[[27.6, -17.57], [28.1, -17.57], [28.1, -17.130000000000003], [27.6, -17.130000000000003], [27.6, -17.57]]]}}, {"type": "Feature", "properties": {"PARK_NAME": "Nyanga National Park & Mount Nyangani", "NAME": "Nyanga National Park & Mount Nyangani", "CATEGORY": "National Park & High Altitude Ecosystem", "AREA_SQ_KM": 472, "LEGAL_STATUS": "NATIONAL PARK & HIGH ALTITUDE WATERSHED", "ENVIRONMENTAL_RESTRICTION": "Pungwe River catchment \u2014 Mining strictly barred", "COMPLIANCE_CODE": "EMA-ZIMPARKS-PROHIBITED"}, "geometry": {"type": "Polygon", "coordinates": [[[32.53, -18.48], [32.97, -18.48], [32.97, -18.080000000000002], [32.53, -18.080000000000002], [32.53, -18.48]]]}}]}